format  = 'OEF1.1'       ! file format
rectype = 'ML'           ! record type (1L/ML)
refsys  = ECLM J2000     ! default reference system
END_OF_HEADER
410777
! Equinoctial elements: a, e*sin(LP), e*cos(LP), tan(i/2)*sin(LN), tan(i/2)*cos(LN), mean long.
 EQU   1.16258579991419E+00  -0.460780587309722   0.174893426578777    0.004546873094735    0.027005357832081 130.2149433096533
 MJD     56146.360960617 TDT
 MAG  22.134  0.150
! RMS    1.96473E-09   2.98895E-08   5.56570E-08   6.52480E-09   4.94639E-08   5.61450E-06
! EIG   2.84046E-10   3.77115E-09   1.37549E-08   2.39388E-08   4.96551E-08   1.13333E-07
! WEA   0.00193  -0.23555   0.45263  -0.00008   0.04021   0.85908
 COV   3.860161481946468E-18 -1.446165963073374E-17  4.656822845390550E-17
 COV   1.821664976970862E-18 -5.907075447992529E-18  3.682275993571308E-17
 COV   8.933795320401931E-16 -1.305841352943879E-15  3.588417695120097E-17
 COV  -2.535854001407887E-16 -1.476485819588337E-13  3.097701994976310E-15
 COV   5.346289388090830E-17  2.106754334362823E-17  2.736504315540130E-13
 COV   4.257297281472898E-17  1.513509627075819E-16 -1.526753453281804E-15
 COV   2.446682165292112E-15  2.326849867690401E-14  3.152255413752462E-11
 NOR   1.226873664370155E+19  7.665131030671191E+17 -7.691614761816942E+17
 NOR   1.253841081615465E+17  1.043852799048019E+16  1.025147626692871E+16
 NOR   5.620974881710584E+16 -4.607629446026310E+16 -6.410417471291135E+15
 NOR   2.188687554135583E+15  6.604524414262104E+14  5.060145487149013E+16
 NOR  -1.577644806577004E+16  1.374226967551625E+14 -6.550602190972885E+14
 NOR   6.677124890538547E+16 -5.440786433786167E+15  1.140347934489098E+14
 NOR   9.190707863578328E+14  8.104493058181679E+12  8.799427002223816E+12
